{
  "type": "FeatureCollection",
  "features": [
    {
      "type": "Feature",
      "properties": {
        "norad_id": 40118,
        "name": "GAOFEN-2",
        "group": "resource",
        "lat": -34.707767923834155,
        "lon": -127.48084007089169,
        "alt_km": 638.0183230889033,
        "timestamp": "2025-12-24T22:42:21.679286+00:00",
        "meta_object_name": "GAOFEN-2",
        "meta_object_id": "2014-049A",
        "meta_epoch": "2025-12-24T07:08:29.114016",
        "meta_mean_motion": 14.80627049,
        "meta_eccentricity": 0.00087605,
        "meta_inclination": 98.0367,
        "meta_ra_of_asc_node": 57.4857,
        "meta_arg_of_pericenter": 81.0885,
        "meta_mean_anomaly": 279.1318,
        "meta_ephemeris_type": 0,
        "meta_classification_type": "U",
        "meta_norad_cat_id": 40118,
        "meta_element_set_no": 999,
        "meta_rev_at_epoch": 61335,
        "meta_bstar": 7.7529351e-05,
        "meta_mean_motion_dot": 5.42e-06,
        "meta_mean_motion_ddot": 0,
        "tle_line1": "1 40118U 14049A   25358.29755919  .00000542  00000+0  77529-4 0  9996",
        "tle_line2": "2 40118  98.0367  57.4857 0008760  81.0885 279.1318 14.80627049613356"
      },
      "geometry": {
        "type": "Point",
        "coordinates": [
          -127.48084007089169,
          -34.707767923834155
        ]
      }
    },
    {
      "type": "Feature",
      "properties": {
        "norad_id": 40143,
        "name": "YAOGAN-21",
        "group": "resource",
        "lat": -82.7929836756802,
        "lon": 136.82892542626286,
        "alt_km": 502.0337485847076,
        "timestamp": "2025-12-24T22:42:21.679296+00:00",
        "meta_object_name": "YAOGAN-21",
        "meta_object_id": "2014-053A",
        "meta_epoch": "2025-12-24T07:20:33.362880",
        "meta_mean_motion": 15.23785967,
        "meta_eccentricity": 0.00085828,
        "meta_inclination": 97.1738,
        "meta_ra_of_asc_node": 41.1154,
        "meta_arg_of_pericenter": 3.9736,
        "meta_mean_anomaly": 356.1568,
        "meta_ephemeris_type": 0,
        "meta_classification_type": "U",
        "meta_norad_cat_id": 40143,
        "meta_element_set_no": 999,
        "meta_rev_at_epoch": 62830,
        "meta_bstar": 0.00016525838,
        "meta_mean_motion_dot": 3.913e-05,
        "meta_mean_motion_ddot": 0,
        "tle_line1": "1 40143U 14053A   25358.30594170  .00003913  00000+0  16526-3 0  9995",
        "tle_line2": "2 40143  97.1738  41.1154 0008582   3.9736 356.1568 15.23785967628302"
      },
      "geometry": {
        "type": "Point",
        "coordinates": [
          136.82892542626286,
          -82.7929836756802
        ]
      }
    },
    {
      "type": "Feature",
      "properties": {
        "norad_id": 40275,
        "name": "YAOGAN-22",
        "group": "resource",
        "lat": -28.874784601600183,
        "lon": 148.54701569639607,
        "alt_km": 1209.1975765123461,
        "timestamp": "2025-12-24T22:42:21.679307+00:00",
        "meta_object_name": "YAOGAN-22",
        "meta_object_id": "2014-063A",
        "meta_epoch": "2025-12-24T06:25:41.917728",
        "meta_mean_motion": 13.15523079,
        "meta_eccentricity": 0.00060782,
        "meta_inclination": 100.7429,
        "meta_ra_of_asc_node": 141.8504,
        "meta_arg_of_pericenter": 220.6211,
        "meta_mean_anomaly": 139.4448,
        "meta_ephemeris_type": 0,
        "meta_classification_type": "U",
        "meta_norad_cat_id": 40275,
        "meta_element_set_no": 999,
        "meta_rev_at_epoch": 53681,
        "meta_bstar": 6.9396244e-05,
        "meta_mean_motion_dot": -2e-07,
        "meta_mean_motion_ddot": 0,
        "tle_line1": "1 40275U 14063A   25358.26784627 -.00000020  00000+0  69396-4 0  9996",
        "tle_line2": "2 40275 100.7429 141.8504 0006078 220.6211 139.4448 13.15523079536813"
      },
      "geometry": {
        "type": "Point",
        "coordinates": [
          148.54701569639607,
          -28.874784601600183
        ]
      }
    },
    {
      "type": "Feature",
      "properties": {
        "norad_id": 40298,
        "name": "ASNARO",
        "group": "resource",
        "lat": 42.637883748614556,
        "lon": -98.56630600960224,
        "alt_km": 500.42316559720257,
        "timestamp": "2025-12-24T22:42:21.679317+00:00",
        "meta_object_name": "ASNARO",
        "meta_object_id": "2014-070A",
        "meta_epoch": "2025-12-24T06:18:14.840064",
        "meta_mean_motion": 15.19728029,
        "meta_eccentricity": 0.00058618,
        "meta_inclination": 97.3639,
        "meta_ra_of_asc_node": 73.9279,
        "meta_arg_of_pericenter": 91.9125,
        "meta_mean_anomaly": 268.2782,
        "meta_ephemeris_type": 0,
        "meta_classification_type": "U",
        "meta_norad_cat_id": 40298,
        "meta_element_set_no": 999,
        "meta_rev_at_epoch": 61744,
        "meta_bstar": 0.00067342421,
        "meta_mean_motion_dot": 0.00014346,
        "meta_mean_motion_ddot": 0,
        "tle_line1": "1 40298U 14070A   25358.26267176  .00014346  00000+0  67342-3 0  9997",
        "tle_line2": "2 40298  97.3639  73.9279 0005861  91.9125 268.2782 15.19728029617447"
      },
      "geometry": {
        "type": "Point",
        "coordinates": [
          -98.56630600960224,
          42.637883748614556
        ]
      }
    },
    {
      "type": "Feature",
      "properties": {
        "norad_id": 40310,
        "name": "YAOGAN-24",
        "group": "resource",
        "lat": 4.006662648420336,
        "lon": 129.53175406561837,
        "alt_km": 645.1756859450052,
        "timestamp": "2025-12-24T22:42:21.679327+00:00",
        "meta_object_name": "YAOGAN-24",
        "meta_object_id": "2014-072A",
        "meta_epoch": "2025-12-24T08:02:48.230880",
        "meta_mean_motion": 14.76199705,
        "meta_eccentricity": 0.00151853,
        "meta_inclination": 98.1233,
        "meta_ra_of_asc_node": 129.491,
        "meta_arg_of_pericenter": 103.5558,
        "meta_mean_anomaly": 256.7344,
        "meta_ephemeris_type": 0,
        "meta_classification_type": "U",
        "meta_norad_cat_id": 40310,
        "meta_element_set_no": 999,
        "meta_rev_at_epoch": 59792,
        "meta_bstar": 0.00016658024,
        "meta_mean_motion_dot": 1.101e-05,
        "meta_mean_motion_ddot": 0,
        "tle_line1": "1 40310U 14072A   25358.33528045  .00001101  00000+0  16658-3 0  9996",
        "tle_line2": "2 40310  98.1233 129.4910 0015185 103.5558 256.7344 14.76199705597921"
      },
      "geometry": {
        "type": "Point",
        "coordinates": [
          129.53175406561837,
          4.006662648420336
        ]
      }
    },
    {
      "type": "Feature",
      "properties": {
        "norad_id": 40336,
        "name": "CBERS 4",
        "group": "resource",
        "lat": 58.529954730995186,
        "lon": -109.60777900969914,
        "alt_km": 766.4259419674327,
        "timestamp": "2025-12-24T22:42:21.679337+00:00",
        "meta_object_name": "CBERS 4",
        "meta_object_id": "2014-079A",
        "meta_epoch": "2025-12-24T07:05:30.259104",
        "meta_mean_motion": 14.35521778,
        "meta_eccentricity": 0.0001868,
        "meta_inclination": 98.3291,
        "meta_ra_of_asc_node": 55.9163,
        "meta_arg_of_pericenter": 100.1161,
        "meta_mean_anomaly": 260.0236,
        "meta_ephemeris_type": 0,
        "meta_classification_type": "U",
        "meta_norad_cat_id": 40336,
        "meta_element_set_no": 999,
        "meta_rev_at_epoch": 57886,
        "meta_bstar": 4.4829171e-05,
        "meta_mean_motion_dot": 8.7e-07,
        "meta_mean_motion_ddot": 0,
        "tle_line1": "1 40336U 14079A   25358.29548911  .00000087  00000+0  44829-4 0  9994",
        "tle_line2": "2 40336  98.3291  55.9163 0001868 100.1161 260.0236 14.35521778578868"
      },
      "geometry": {
        "type": "Point",
        "coordinates": [
          -109.60777900969914,
          58.529954730995186
        ]
      }
    },
    {
      "type": "Feature",
      "properties": {
        "norad_id": 40362,
        "name": "YAOGAN-26",
        "group": "resource",
        "lat": -43.56716483892692,
        "lon": 5.96200084845178,
        "alt_km": 451.11272996607386,
        "timestamp": "2025-12-24T22:42:21.679347+00:00",
        "meta_object_name": "YAOGAN-26",
        "meta_object_id": "2014-088A",
        "meta_epoch": "2025-12-24T07:17:56.437152",
        "meta_mean_motion": 15.39697767,
        "meta_eccentricity": 0.00046259,
        "meta_inclination": 97.0642,
        "meta_ra_of_asc_node": 358.5682,
        "meta_arg_of_pericenter": 354.3838,
        "meta_mean_anomaly": 5.7356,
        "meta_ephemeris_type": 0,
        "meta_classification_type": "U",
        "meta_norad_cat_id": 40362,
        "meta_element_set_no": 999,
        "meta_rev_at_epoch": 61072,
        "meta_bstar": 0.0005525132,
        "meta_mean_motion_dot": 0.00021789,
        "meta_mean_motion_ddot": 0,
        "tle_line1": "1 40362U 14088A   25358.30412543  .00021789  00000+0  55251-3 0  9998",
        "tle_line2": "2 40362  97.0642 358.5682 0004625 354.3838   5.7356 15.39697767610725"
      },
      "geometry": {
        "type": "Point",
        "coordinates": [
          5.96200084845178,
          -43.56716483892692
        ]
      }
    }
  ]
}